$$SOE
2459580.500000000, A.D. 2022-Jan-01 00:00:00.0000, -3.018742961334520E+08, 3.335674628058391E+08, -1.034710130112100E+08,
2459587.500000000, A.D. 2022-Jan-08 00:00:00.0000, -3.096615242164955E+08, 3.269198118251131E+08, -1.053478681808643E+08,
2459594.500000000, A.D. 2022-Jan-15 00:00:00.0000, -3.172968192184386E+08, 3.201116992801056E+08, -1.071730140449875E+08,
2459601.500000000, A.D. 2022-Jan-22 00:00:00.0000, -3.247772665108584E+08, 3.131473099327421E+08, -1.089458377873254E+08,
2459608.500000000, A.D. 2022-Jan-29 00:00:00.0000, -3.321000653817712E+08, 3.060308700212163E+08, -1.106657611938651E+08,
2459615.500000000, A.D. 2022-Feb-05 00:00:00.0000, -3.392625307984626E+08, 2.987666429205902E+08, -1.123322401914889E+08,
2459622.500000000, A.D. 2022-Feb-12 00:00:00.0000, -3.462620928833627E+08, 2.913589238228596E+08, -1.139447646428550E+08,
2459629.500000000, A.D. 2022-Feb-19 00:00:00.0000, -3.530962954356574E+08, 2.838120358051668E+08, -1.155028580836485E+08,
2459636.500000000, A.D. 2022-Feb-26 00:00:00.0000, -3.597627948188983E+08, 2.761303265656235E+08, -1.170060773442331E+08,
2459643.500000000, A.D. 2022-Mar-05 00:00:00.0000, -3.662593590626481E+08, 2.683181652128822E+08, -1.184540121239148E+08,
2459650.500000000, A.D. 2022-Mar-12 00:00:00.0000, -3.725838669627366E+08, 2.603799390462576E+08, -1.198462845463409E+08,
2459657.500000000, A.D. 2022-Mar-19 00:00:00.0000, -3.787343071149393E+08, 2.523200503565294E+08, -1.211825487027945E+08,
2459664.500000000, A.D. 2022-Mar-26 00:00:00.0000, -3.847087768651289E+08, 2.441429132430990E+08, -1.224624901881350E+08,
2459671.500000000, A.D. 2022-Apr-02 00:00:00.0000, -3.905054811132258E+08, 2.358529503927405E+08, -1.236858256420613E+08,
2459678.500000000, A.D. 2022-Apr-09 00:00:00.0000, -3.961227307037797E+08, 2.274545898253154E+08, -1.248523023218615E+08,
2459685.500000000, A.D. 2022-Apr-16 00:00:00.0000, -4.015589400508121E+08, 2.189522622604552E+08, -1.259616976873279E+08,
2459692.500000000, A.D. 2022-Apr-23 00:00:00.0000, -4.068126252709664E+08, 2.103504001889233E+08, -1.270138187943265E+08,
2459699.500000000, A.D. 2022-Apr-30 00:00:00.0000, -4.118824047008663E+08, 2.016534364033669E+08, -1.280085015109925E+08,
2459706.500000000, A.D. 2022-May-07 00:00:00.0000, -4.167669987401792E+08, 1.928658000153312E+08, -1.289456100001500E+08,
2459713.500000000, A.D. 2022-May-14 00:00:00.0000, -4.214652276338849E+08, 1.839919129951783E+08, -1.298250363471917E+08,
2459720.500000000, A.D. 2022-May-21 00:00:00.0000, -4.259760092295233E+08, 1.750361879912513E+08, -1.306467000860538E+08,
2459727.500000000, A.D. 2022-May-28 00:00:00.0000, -4.302983571934899E+08, 1.660030264684201E+08, -1.314105476594785E+08,
2459734.500000000, A.D. 2022-Jun-04 00:00:00.0000, -4.344313794134880E+08, 1.568968168523875E+08, -1.321165518658414E+08,
2459741.500000000, A.D. 2022-Jun-11 00:00:00.0000, -4.383742764461077E+08, 1.477219326806701E+08, -1.327647113065087E+08,
2459748.500000000, A.D. 2022-Jun-18 00:00:00.0000, -4.421263399743788E+08, 1.384827307719919E+08, -1.333550498369785E+08,
2459755.500000000, A.D. 2022-Jun-25 00:00:00.0000, -4.456869512493123E+08, 1.291835493792902E+08, -1.338876160279881E+08,
2459762.500000000, A.D. 2022-Jul-02 00:00:00.0000, -4.490555793846892E+08, 1.198287062589316E+08, -1.343624826549690E+08,
2459769.500000000, A.D. 2022-Jul-09 00:00:00.0000, -4.522317791178401E+08, 1.104224968313307E+08, -1.347797462377670E+08,
2459776.500000000, A.D. 2022-Jul-16 00:00:00.0000, -4.552151880943879E+08, 1.009691935136639E+08, -1.351395265375191E+08,
2459783.500000000, A.D. 2022-Jul-23 00:00:00.0000, -4.580055258784992E+08, 9.147304629990013E+07, -1.354419658033641E+08,
2459790.500000000, A.D. 2022-Jul-30 00:00:00.0000, -4.606025946083478E+08, 8.193828123233846E+07, -1.356872280519613E+08,
2459797.500000000, A.D. 2022-Aug-06 00:00:00.0000, -4.630062777004532E+08, 7.236909741165866E+07, -1.358754986573683E+08,
2459804.500000000, A.D. 2022-Aug-13 00:00:00.0000, -4.652165374271540E+08, 6.276966529752100E+07, -1.360069839501022E+08,
2459811.500000000, A.D. 2022-Aug-20 00:00:00.0000, -4.672334129387686E+08, 5.314412579301328E+07, -1.360819107227520E+08,
2459818.500000000, A.D. 2022-Aug-27 00:00:00.0000, -4.690570186652786E+08, 4.349658938385248E+07, -1.361005257086310E+08,
2459825.500000000, A.D. 2022-Sep-03 00:00:00.0000, -4.706875428520932E+08, 3.383113521984793E+07, -1.360630950659169E+08,
2459832.500000000, A.D. 2022-Sep-10 00:00:00.0000, -4.721252461417824E+08, 2.415181016057578E+07, -1.359699038740135E+08,
2459839.500000000, A.D. 2022-Sep-17 00:00:00.0000, -4.733704601740963E+08, 1.446262778154161E+07, -1.358212556453421E+08,
2459846.500000000, A.D. 2022-Sep-24 00:00:00.0000, -4.744235861453167E+08, 4.767567288098261E+06, -1.356174718625690E+08,
2459853.500000000, A.D. 2022-Oct-01 00:00:00.0000, -4.752850930879915E+08, -4.929427686901003E+06, -1.353588915652044E+08,
2459860.500000000, A.D. 2022-Oct-08 00:00:00.0000, -4.759555154641401E+08, -1.462444988148589E+07, -1.350458709800337E+08,
2459867.500000000, A.D. 2022-Oct-15 00:00:00.0000, -4.764354510036791E+08, -2.431362760231148E+07, -1.346787830114928E+08,
2459874.500000000, A.D. 2022-Oct-22 00:00:00.0000, -4.767255609702212E+08, -3.399312400905348E+07, -1.342580165296404E+08,
2459881.500000000, A.D. 2022-Oct-29 00:00:00.0000, -4.768265703583149E+08, -4.365913908201360E+07, -1.337839758978376E+08,
2459888.500000000, A.D. 2022-Nov-05 00:00:00.0000, -4.767392659242139E+08, -5.330791153377436E+07, -1.332570807094635E+08,
2459895.500000000, A.D. 2022-Nov-12 00:00:00.0000, -4.764644940155205E+08, -6.293571939986942E+07, -1.326777654501982E+08,
2459902.500000000, A.D. 2022-Nov-19 00:00:00.0000, -4.760031589201462E+08, -7.253888026507497E+07, -1.320464790985580E+08,
2459909.500000000, A.D. 2022-Nov-26 00:00:00.0000, -4.753562214738302E+08, -8.211375152456732E+07, -1.313636847220211E+08,
2459916.500000000, A.D. 2022-Dec-03 00:00:00.0000, -4.745246977611751E+08, -9.165673069290331E+07, -1.306298590852899E+08,
2459923.500000000, A.D. 2022-Dec-10 00:00:00.0000, -4.735096578650663E+08, -1.011642557435912E+08, -1.298454922732738E+08,
2459930.500000000, A.D. 2022-Dec-17 00:00:00.0000, -4.723122246398469E+08, -1.106328055059229E+08, -1.290110873328659E+08,
2459937.500000000, A.D. 2022-Dec-24 00:00:00.0000, -4.709335723988739E+08, -1.200589001867067E+08, -1.281271599486721E+08,
2459944.500000000, A.D. 2022-Dec-31 00:00:00.0000, -4.693749251587954E+08, -1.294391019111861E+08, -1.271942381764512E+08,
2459951.500000000, A.D. 2023-Jan-07 00:00:00.0000, -4.676375543176057E+08, -1.387700143224819E+08, -1.262128621665443E+08,
2459958.500000000, A.D. 2023-Jan-14 00:00:00.0000, -4.657227777330714E+08, -1.480482807446932E+08, -1.251835836559394E+08,
2459965.500000000, A.D. 2023-Jan-21 00:00:00.0000, -4.636319608464779E+08, -1.572705840846349E+08, -1.241069654292160E+08,
2459972.500000000, A.D. 2023-Jan-28 00:00:00.0000, -4.613665161846964E+08, -1.664336486694725E+08, -1.229835811011353E+08,
2459979.500000000, A.D. 2023-Feb-04 00:00:00.0000, -4.589279014491643E+08, -1.755342409933448E+08, -1.218140149539730E+08,
2459986.500000000, A.D. 2023-Feb-11 00:00:00.0000, -4.563176179860260E+08, -1.845691695677297E+08, -1.205988616800262E+08,
2459993.500000000, A.D. 2023-Feb-18 00:00:00.0000, -4.535372096999997E+08, -1.935352847005272E+08, -1.193387260904341E+08,
2460000.500000000, A.D. 2023-Feb-25 00:00:00.0000, -4.505882621490909E+08, -2.024294783673826E+08, -1.180342228276348E+08,
2460007.500000000, A.D. 2023-Mar-04 00:00:00.0000, -4.474724017180138E+08, -2.112486841577609E+08, -1.166859760892597E+08,
2460014.500000000, A.D. 2023-Mar-11 00:00:00.0000, -4.441912948415546E+08, -2.199898772963108E+08, -1.152946193658254E+08,
2460021.500000000, A.D. 2023-Mar-18 00:00:00.0000, -4.407466472304852E+08, -2.286500747899536E+08, -1.138607952002462E+08,
2460028.500000000, A.D. 2023-Mar-25 00:00:00.0000, -4.371402028963077E+08, -2.372263357488165E+08, -1.123851549912803E+08,
2460035.500000000, A.D. 2023-Apr-01 00:00:00.0000, -4.333737425498086E+08, -2.457157614883846E+08, -1.108683588472432E+08,
2460042.500000000, A.D. 2023-Apr-08 00:00:00.0000, -4.294490819880081E+08, -2.541154941885314E+08, -1.093110753328514E+08,
2460049.500000000, A.D. 2023-Apr-15 00:00:00.0000, -4.253680728054258E+08, -2.624227152165192E+08, -1.077139809846965E+08,
2460056.500000000, A.D. 2023-Apr-22 00:00:00.0000, -4.211326036200603E+08, -2.706346461674769E+08, -1.060777600106113E+08,
2460063.500000000, A.D. 2023-Apr-29 00:00:00.0000, -4.167445990792564E+08, -2.787485503706533E+08, -1.044031042397018E+08,
2460070.500000000, A.D. 2023-May-06 00:00:00.0000, -4.122060184051289E+08, -2.867617330807466E+08, -1.026907130156465E+08,
2460077.500000000, A.D. 2023-May-13 00:00:00.0000, -4.075188544551240E+08, -2.946715412485887E+08, -1.009412930163158E+08,
2460084.500000000, A.D. 2023-May-20 00:00:00.0000, -4.026851330627030E+08, -3.024753633636361E+08, -9.915555806137912E+07,
2460091.500000000, A.D. 2023-May-27 00:00:00.0000, -3.977069124644986E+08, -3.101706293991544E+08, -9.733422892843436E+07,
2460098.500000000, A.D. 2023-Jun-03 00:00:00.0000, -3.925862827565783E+08, -3.177548108350677E+08, -9.547803318116744E+07,
2460105.500000000, A.D. 2023-Jun-10 00:00:00.0000, -3.873253653560192E+08, -3.252254207725770E+08, -9.358770501290950E+07,
2460112.500000000, A.D. 2023-Jun-17 00:00:00.0000, -3.819263123781419E+08, -3.325800142006825E+08, -9.166398511844401E+07,
2460119.500000000, A.D. 2023-Jun-24 00:00:00.0000, -3.763913056082470E+08, -3.398161883591873E+08, -8.970762061855000E+07,
2460126.500000000, A.D. 2023-Jul-01 00:00:00.0000, -3.707225548133340E+08, -3.469315823707106E+08, -8.771936499261914E+07,
2460133.500000000, A.D. 2023-Jul-08 00:00:00.0000, -3.649222970664642E+08, -3.539238753206613E+08, -8.569997779861799E+07,
2460140.500000000, A.D. 2023-Jul-15 00:00:00.0000, -3.589927983596637E+08, -3.607907856165607E+08, -8.365022429484646E+07,
$$EOE